{
  "type": "FeatureCollection",
  "features": [
    {
      "type": "Feature",
      "properties": {
        "norad_id": 66541,
        "name": "STARLINK-35796",
        "group": "last-30-days",
        "lat": -39.538354657307465,
        "lon": -32.85788475286379,
        "alt_km": 386.0975432600035,
        "timestamp": "2025-12-07T11:27:48.740665+00:00",
        "meta_object_name": "STARLINK-35796",
        "meta_object_id": "2025-265AB",
        "meta_epoch": "2025-12-06T22:00:01.999584",
        "meta_mean_motion": 15.63717426,
        "meta_eccentricity": 0.00017136,
        "meta_inclination": 43.0003,
        "meta_ra_of_asc_node": 88.1293,
        "meta_arg_of_pericenter": 280.9487,
        "meta_mean_anomaly": 48.8815,
        "meta_ephemeris_type": 0,
        "meta_classification_type": "U",
        "meta_norad_cat_id": 66541,
        "meta_element_set_no": 999,
        "meta_rev_at_epoch": 405,
        "meta_bstar": -0.023591184,
        "meta_mean_motion_dot": -0.01992353,
        "meta_mean_motion_ddot": 0,
        "tle_line1": "1 66541U 25265AB  25340.91668981 -.01992353  00000+0 -23591-1 0  9998",
        "tle_line2": "2 66541  43.0003  88.1293 0001713 280.9487  48.8815 15.63717426  4050"
      },
      "geometry": {
        "type": "Point",
        "coordinates": [
          -32.85788475286379,
          -39.538354657307465
        ]
      }
    },
    {
      "type": "Feature",
      "properties": {
        "norad_id": 66542,
        "name": "STARLINK-35833",
        "group": "last-30-days",
        "lat": -40.119971092933284,
        "lon": -30.487783267065534,
        "alt_km": 386.12086499067937,
        "timestamp": "2025-12-07T11:27:48.740674+00:00",
        "meta_object_name": "STARLINK-35833",
        "meta_object_id": "2025-265AC",
        "meta_epoch": "2025-12-06T22:00:01.999584",
        "meta_mean_motion": 15.63718743,
        "meta_eccentricity": 0.00016927,
        "meta_inclination": 43.0005,
        "meta_ra_of_asc_node": 88.1247,
        "meta_arg_of_pericenter": 281.3459,
        "meta_mean_anomaly": 50.4024,
        "meta_ephemeris_type": 0,
        "meta_classification_type": "U",
        "meta_norad_cat_id": 66542,
        "meta_element_set_no": 999,
        "meta_rev_at_epoch": 405,
        "meta_bstar": -0.023632641,
        "meta_mean_motion_dot": -0.01995502,
        "meta_mean_motion_ddot": 0,
        "tle_line1": "1 66542U 25265AC  25340.91668981 -.01995502  00000+0 -23633-1 0  9995",
        "tle_line2": "2 66542  43.0005  88.1247 0001692 281.3459  50.4024 15.63718743  4056"
      },
      "geometry": {
        "type": "Point",
        "coordinates": [
          -30.487783267065534,
          -40.119971092933284
        ]
      }
    },
    {
      "type": "Feature",
      "properties": {
        "norad_id": 66543,
        "name": "STARLINK-35315",
        "group": "last-30-days",
        "lat": -40.65338399389465,
        "lon": -28.072577170740125,
        "alt_km": 386.09388847846094,
        "timestamp": "2025-12-07T11:27:48.740684+00:00",
        "meta_object_name": "STARLINK-35315",
        "meta_object_id": "2025-265AD",
        "meta_epoch": "2025-12-06T22:00:01.999584",
        "meta_mean_motion": 15.63717356,
        "meta_eccentricity": 0.00016112,
        "meta_inclination": 43.0004,
        "meta_ra_of_asc_node": 88.1193,
        "meta_arg_of_pericenter": 277.6825,
        "meta_mean_anomaly": 55.9828,
        "meta_ephemeris_type": 0,
        "meta_classification_type": "U",
        "meta_norad_cat_id": 66543,
        "meta_element_set_no": 999,
        "meta_rev_at_epoch": 395,
        "meta_bstar": -0.023583289,
        "meta_mean_motion_dot": -0.01991683,
        "meta_mean_motion_ddot": 0,
        "tle_line1": "1 66543U 25265AD  25340.91668981 -.01991683  00000+0 -23583-1 0  9996",
        "tle_line2": "2 66543  43.0004  88.1193 0001611 277.6825  55.9828 15.63717356  3951"
      },
      "geometry": {
        "type": "Point",
        "coordinates": [
          -28.072577170740125,
          -40.65338399389465
        ]
      }
    },
    {
      "type": "Feature",
      "properties": {
        "norad_id": 66544,
        "name": "STARLINK-35728",
        "group": "last-30-days",
        "lat": -41.13335231477391,
        "lon": -25.629835416149874,
        "alt_km": 386.0566310735949,
        "timestamp": "2025-12-07T11:27:48.740694+00:00",
        "meta_object_name": "STARLINK-35728",
        "meta_object_id": "2025-265AE",
        "meta_epoch": "2025-12-06T22:00:01.999584",
        "meta_mean_motion": 15.63720943,
        "meta_eccentricity": 0.00017342,
        "meta_inclination": 43.0001,
        "meta_ra_of_asc_node": 88.1147,
        "meta_arg_of_pericenter": 279.8429,
        "meta_mean_anomaly": 55.7377,
        "meta_ephemeris_type": 0,
        "meta_classification_type": "U",
        "meta_norad_cat_id": 66544,
        "meta_element_set_no": 999,
        "meta_rev_at_epoch": 405,
        "meta_bstar": -0.023652878,
        "meta_mean_motion_dot": -0.01997189,
        "meta_mean_motion_ddot": 0,
        "tle_line1": "1 66544U 25265AE  25340.91668981 -.01997189  00000+0 -23653-1 0  9992",
        "tle_line2": "2 66544  43.0001  88.1147 0001734 279.8429  55.7377 15.63720943  4053"
      },
      "geometry": {
        "type": "Point",
        "coordinates": [
          -25.629835416149874,
          -41.13335231477391
        ]
      }
    },
    {
      "type": "Feature",
      "properties": {
        "norad_id": 66545,
        "name": "SHIJIAN-30A",
        "group": "last-30-days",
        "lat": -17.092611862586825,
        "lon": -16.500970187789015,
        "alt_km": 513.3252658043893,
        "timestamp": "2025-12-07T11:27:48.740706+00:00",
        "meta_object_name": "SHIJIAN-30A",
        "meta_object_id": "2025-266A",
        "meta_epoch": "2025-12-06T22:53:55.142880",
        "meta_mean_motion": 15.15473934,
        "meta_eccentricity": 0.00128119,
        "meta_inclination": 51.7998,
        "meta_ra_of_asc_node": 359.9656,
        "meta_arg_of_pericenter": 335.724,
        "meta_mean_anomaly": 24.3132,
        "meta_ephemeris_type": 0,
        "meta_classification_type": "U",
        "meta_norad_cat_id": 66545,
        "meta_element_set_no": 999,
        "meta_rev_at_epoch": 270,
        "meta_bstar": 0.00084760967,
        "meta_mean_motion_dot": 0.00015998,
        "meta_mean_motion_ddot": 0,
        "tle_line1": "1 66545U 25266A   25340.95411045  .00015998  00000+0  84761-3 0  9990",
        "tle_line2": "2 66545  51.7998 359.9656 0012811 335.7240  24.3132 15.15473934  2703"
      },
      "geometry": {
        "type": "Point",
        "coordinates": [
          -16.500970187789015,
          -17.092611862586825
        ]
      }
    },
    {
      "type": "Feature",
      "properties": {
        "norad_id": 66546,
        "name": "SHIJIAN-30B",
        "group": "last-30-days",
        "lat": -20.35136692471153,
        "lon": -19.466182123894747,
        "alt_km": 514.996118669641,
        "timestamp": "2025-12-07T11:27:48.740717+00:00",
        "meta_object_name": "SHIJIAN-30B",
        "meta_object_id": "2025-266B",
        "meta_epoch": "2025-12-06T22:55:05.843136",
        "meta_mean_motion": 15.15556495,
        "meta_eccentricity": 0.00105114,
        "meta_inclination": 51.798,
        "meta_ra_of_asc_node": 359.9684,
        "meta_arg_of_pericenter": 338.7999,
        "meta_mean_anomaly": 21.254,
        "meta_ephemeris_type": 0,
        "meta_classification_type": "U",
        "meta_norad_cat_id": 66546,
        "meta_element_set_no": 999,
        "meta_rev_at_epoch": 270,
        "meta_bstar": 0.00097314632,
        "meta_mean_motion_dot": 0.00018453,
        "meta_mean_motion_ddot": 0,
        "tle_line1": "1 66546U 25266B   25340.95492874  .00018453  00000+0  97315-3 0  9998",
        "tle_line2": "2 66546  51.7980 359.9684 0010511 338.7999  21.2540 15.15556495  2708"
      },
      "geometry": {
        "type": "Point",
        "coordinates": [
          -19.466182123894747,
          -20.35136692471153
        ]
      }
    },
    {
      "type": "Feature",
      "properties": {
        "norad_id": 66547,
        "name": "SHIJIAN-30C",
        "group": "last-30-days",
        "lat": -23.152532940943193,
        "lon": -22.15147628247175,
        "alt_km": 514.5336478297495,
        "timestamp": "2025-12-07T11:27:48.740727+00:00",
        "meta_object_name": "SHIJIAN-30C",
        "meta_object_id": "2025-266C",
        "meta_epoch": "2025-12-06T22:56:05.618976",
        "meta_mean_motion": 15.15573868,
        "meta_eccentricity": 0.00113923,
        "meta_inclination": 51.7991,
        "meta_ra_of_asc_node": 359.974,
        "meta_arg_of_pericenter": 330.979,
        "meta_mean_anomaly": 29.0552,
        "meta_ephemeris_type": 0,
        "meta_classification_type": "U",
        "meta_norad_cat_id": 66547,
        "meta_element_set_no": 999,
        "meta_rev_at_epoch": 270,
        "meta_bstar": 0.00085718405,
        "meta_mean_motion_dot": 0.00016223,
        "meta_mean_motion_ddot": 0,
        "tle_line1": "1 66547U 25266C   25340.95562059  .00016223  00000+0  85718-3 0  9999",
        "tle_line2": "2 66547  51.7991 359.9740 0011392 330.9790  29.0552 15.15573868  2707"
      },
      "geometry": {
        "type": "Point",
        "coordinates": [
          -22.15147628247175,
          -23.152532940943193
        ]
      }
    }
  ]
}